ADRAS-J                 
1 58992U 24034A   24207.48186244  .00005373  00000+0  49568-3 0  9990
2 58992  98.2149 182.2542 0042022 283.2164  76.4369 14.94443742 23583
